FENGYUN 3C              
1 39260U 13052A   23125.28189108  .00000211  00000+0  12762-3 0  9995
2 39260  98.4305 141.6894 0012266  69.6266 290.6221 14.16030554497467
CASSIOPE                
1 39265U 13055A   23124.89855889  .00021785  00000+0  52924-3 0  9998
2 39265  80.9578 283.9697 0576457  78.6679 287.8683 14.50403243498701
ZACUBE-1 (TSHEPISOSAT)  
1 39417U 13066B   23125.17048273  .00004706  00000+0  54681-3 0  9998
2 39417  97.6824  88.3636 0056978  69.6155 291.1168 14.84636929510818
CINEMA-3 (KHUSAT-2)     
1 39426U 13066L   23124.84384103  .00001908  00000+0  29335-3 0  9995
2 39426  97.8271  56.5124 0099602 286.2499  72.7769 14.71389071506504
TRITON-1                
1 39427U 13066M   23125.24600089  .00003530  00000+0  53657-3 0  9992
2 39427  97.8353  52.7371 0107365 316.0235  43.2465 14.70797698506237
DELFI-N3XT              
1 39428U 13066N   23124.75176543  .00006241  00000+0  90509-3 0  9990
2 39428  97.8335  51.1403 0110700 329.8358  29.6505 14.72242440505742
GOMX-1                  
1 39430U 13066Q   23125.19942795  .00002157  00000+0  38001-3 0  9993
2 39430  97.7852  18.8418 0147340 109.1386 252.5836 14.61612586503263
BRITE-PL1 (LEM)         
1 39431U 13066R   23124.58793538  .00000543  00000+0  12459-3 0  9991
2 39431  97.6801 314.3735 0198972 313.2778  45.1964 14.47895269498821
ICUBE-1                 
1 39432U 13066S   23125.26209041  .00006096  00000+0  55700-3 0  9994
2 39432  97.4834 118.0879 0027012 266.3577  93.4555 14.95098848513938
HUMSAT-D                
1 39433U 13066T   23125.23358832  .00007051  00000+0  58780-3 0  9998
2 39433  97.4540 126.0052 0024839 233.4111 126.4827 14.98660960514504
VELOX-PII               
1 39438U 13066Y   23125.14092255  .00002772  00000+0  35254-3 0  9993
2 39438  97.7392  80.0179 0068336 127.6204 233.1238 14.80745877509703
FIRST-MOVE              
1 39439U 13066Z   23124.88897123  .00009610  00000+0  99511-3 0  9995
2 39439  97.6777  91.7134 0059146  61.6491 299.0674 14.88940770509784
CUBEBUG-2 (LO-74)       
1 39440U 13066AA  23124.81051584  .00002680  00000+0  35142-3 0  9993
2 39440  97.7698  74.9984 0076019 167.0506 193.2682 14.79129261507743
NEE-02 KRYSAOR          
1 39441U 13066AB  23124.79760953  .00001848  00000+0  25496-3 0  9994
2 39441  97.7808  71.8832 0078265 183.4330 176.6354 14.77248672507441
FUNCUBE-1 (AO-73)       
1 39444U 13066AE  23124.84495652  .00006103  00000+0  68090-3 0  9990
2 39444  97.6685  90.5600 0055140  56.9145 303.7348 14.86255792509205
HINCUBE                 
1 39445U 13066AF  23124.87585176  .00005236  00000+0  58870-3 0  9996
2 39445  97.6702  90.3643 0055327  59.3201 301.3451 14.85998578509145
UWE-3                   
1 39446U 13066AG  23125.14933217  .00003587  00000+0  44383-3 0  9992
2 39446  97.7320  81.5178 0067405 118.9672 241.8321 14.81740612508640
AIST-1 (RS-41)          
1 39492U 13078C   23125.31244910  .00002123  00000+0  21937-3 0  9995
2 39492  82.4150 288.4514 0020433 117.0589 243.2718 14.89534129507672
SPROUT                  
1 39770U 14029E   23125.24204064  .00021319  00000+0  16896-2 0  9994
2 39770  97.9721 251.2895 0008006  94.7796 265.4340 15.00551622485717
UNISAT-6                
1 40012U 14033C   23125.23378022  .00003270  00000+0  46429-3 0  9997
2 40012  97.6706 301.4154 0055602 194.3665 165.5968 14.76541513477436
BUGSAT-1 (TITA)         
1 40014U 14033E   23124.98028116  .00004473  00000+0  36976-3 0  9998
2 40014  98.1419 142.0131 0029479  55.7262 304.6746 14.99153444484261
DUCHIFAT-1              
1 40021U 14033M   23124.86010018  .00008026  00000+0  69571-3 0  9990
2 40021  98.0563  87.4554 0013320  62.4661 297.7912 14.97308876482708
NANOSATC-BR1            
1 40024U 14033Q   23124.83516607  .00006543  00000+0  59676-3 0  9992
2 40024  98.0263  78.9006 0012897  69.7111 290.5494 14.95394038481936
QB50P1                  
1 40025U 14033R   23124.79317429  .00005798  00000+0  55545-3 0  9991
2 40025  97.9945  70.7993 0013239  79.8551 280.4160 14.93496023481661
DTUSAT-2                
1 40030U 14033W   23125.31863231  .00005422  00000+0  53046-3 0  9991
2 40030  97.9661  65.3272 0012795  75.6865 284.5773 14.92690588482117
QB50P2                  
1 40032U 14033Y   23124.82526295  .00004667  00000+0  45756-3 0  9993
2 40032  97.9655  64.8456 0012494  77.6496 282.6121 14.92686011481502
POLYITAN-1              
1 40042U 14033AJ  23124.88485287  .00006544  00000+0  61458-3 0  9998
2 40042  98.0065  72.6603 0015135  71.6568 288.6296 14.94210718481575
TIGRISAT                
1 40043U 14033AK  23124.67476025  .00002577  00000+0  36875-3 0  9993
2 40043  97.6632 301.9195 0057665 193.5568 166.4096 14.76308820476996
AISAT                   
1 40054U 14034B   23125.13941686  .00005619  00000+0  69912-3 0  9996
2 40054  98.3682 315.3175 0011331  10.8016 349.3437 14.82903599477080
CANX-4                  
1 40055U 14034C   23125.05495054  .00001518  00000+0  22600-3 0  9998
2 40055  98.3880 298.3651 0014884  58.1220 302.1434 14.76408502476189
CANX-5                  
1 40056U 14034D   23124.45190078  .00001442  00000+0  21521-3 0  9997
2 40056  98.3884 297.7241 0014900  60.1166 300.1521 14.76408773466873
VELOX-I                 
1 40057U 14034E   23125.32186952  .00004002  00000+0  51610-3 0  9998
2 40057  98.3742 316.4309 0010405  27.3705 332.8019 14.81594529477081
METEOR-M 2              
1 40069U 14037A   23125.17128497  .00000105  00000+0  67656-4 0  9995
2 40069  98.4245 133.1419 0006906 103.2150 256.9799 14.20773084457546
DX1                     
1 40071U 14037C   23125.34440555  .00001611  00000+0  20608-3 0  9997
2 40071  98.3660  14.4135 0008527  11.9900 348.1500 14.82848365477026
UKUBE-1                 
1 40074U 14037F   23125.28539700  .00004376  00000+0  48412-3 0  9998
2 40074  98.3481  27.5260 0003793 350.4563   9.6586 14.87930137477870
FIREBIRD 3              
1 40377U 15003B   23125.11986450  .00140652  00000+0  15206-2 0  9990
2 40377  99.0769  71.6317 0048873   5.4228 354.7543 15.61634211457905
FIREBIRD 4              
1 40378U 15003C   23124.80337384  .00134420  00000+0  14564-2 0  9994
2 40378  99.0788  71.5419 0049266   5.5937 354.5854 15.61573270457858
GRIFEX                  
1 40379U 15003D   23125.14279155  .00042346  00000+0  10002-2 0  9992
2 40379  99.0796  51.6410 0088534  60.3751 300.6271 15.37658738456762
CP10 (EXOCUBE)          
1 40380U 15003E   23124.80599861  .00024035  00000+0  70128-3 0  9996
2 40380  99.0858  41.6456 0103193  92.7366 268.5686 15.30136488456085
DEORBITSAIL             
1 40719U 15032E   23124.92104503  .00004839  00000+0  62766-3 0  9991
2 40719  97.7405 357.2220 0016102  44.0126 316.2365 14.81136199421414
XW-2C                   
1 40906U 15049H   23125.08641184  .00012241  00000+0  48636-3 0  9992
2 40906  97.4958 132.1098 0010369 322.0849 108.5480 15.25414640421829
XW-2D                   
1 40907U 15049J   23125.28598704  .00014692  00000+0  55360-3 0  9998
2 40907  97.4936 132.7331 0009046 314.9838 103.4851 15.27149416421936
LILACSAT-2              
1 40908U 15049K   23125.29728219  .00006261  00000+0  29994-3 0  9993
2 40908  97.5267 128.4905 0013538 347.2453  69.1346 15.19217433421288
XW-2E                   
1 40909U 15049L   23125.29897314  .00027621  00000+0  78904-3 0  9995
2 40909  97.4560 138.5886 0006387 273.5253 138.9642 15.35956644422554
XW-2F                   
1 40910U 15049M   23125.29188181  .00027341  00000+0  79646-3 0  9995
2 40910  97.4654 137.8077 0007152 275.5321 208.9310 15.35340476422306
XW-2B                   
1 40911U 15049N   23125.28719800  .00014524  00000+0  55074-3 0  9991
2 40911  97.4915 133.1974 0009075 316.8457 163.5666 15.26942233421811
KAITUO 1B               
1 40912U 15049P   23125.28031155  .00034482  00000+0  84212-3 0  9993
2 40912  97.4212 142.3092 0007681 221.6744 267.6310 15.40737623422991
LAPAN-A2                
1 40931U 15052B   23125.35403725  .00001178  00000+0  73635-4 0  9996
2 40931   5.9937  32.2997 0013487  46.5263 313.6038 14.77188331411017
LQSAT                   
1 40958U 15057A   23125.06926732  .00000815  00000+0  13139-3 0  9995
2 40958  97.7068 161.1631 0018194   8.2941 351.8582 14.73848913407349
ATHENOXAT 1             
1 41168U 15077C   23123.44528929  .00109403  00000+0  19405-2 0  9991
2 41168  14.9864 210.1252 0006382 117.9233 328.5336 15.48345269409350
GALASSIA                
1 41170U 15077E   23124.44095847  .00039510  00000+0  10604-2 0  9996
2 41170  14.9866 205.6573 0008482 133.5989 226.5040 15.35902202409312
VELOX-II                
1 41171U 15077F   23124.82267682  .00020969  00000+0  76388-3 0  9997
2 41171  14.9905 298.7395 0005911 300.1555  59.8181 15.25727473408560
CHUBUSAT-2              
1 41338U 16012B   23125.26414203  .00003860  00000+0  26854-3 0  9998
2 41338  31.0015 132.1605 0012123 111.5598 248.6331 15.03675473395913
CHUBUSAT-3              
1 41339U 16012C   23125.13348168  .00003324  00000+0  23115-3 0  9993
2 41339  31.0104 130.0422 0011781 118.7390 301.7073 15.03559252395892
HORYU-4                 
1 41340U 16012D   23124.29467106  .00006601  00000+0  42032-3 0  9995
2 41340  31.0030 105.5161 0011655 165.1849 194.9132 15.07294106396093
OUFTI-1                 
1 41458U 16025C   23125.10242829  .00032381  00000+0  92975-3 0  9998
2 41458  98.1869 324.4215 0105158 241.1451 117.9202 15.30355120386457
E-ST@R-II               
1 41459U 16025D   23125.21362199  .00024854  00000+0  77045-3 0  9991
2 41459  98.1902 322.2375 0111649 247.8554 111.0812 15.27436643386333
AAUSAT 4                
1 41460U 16025E   23125.16386061  .00084683  00000+0  14515-2 0  9999
2 41460  98.1670 333.3258 0071261 205.7358 275.4175 15.48042221387099
AIST-2D (RS-48)         
1 41465U 16026B   23125.29235522  .00027603  00000+0  40026-3 0  9990
2 41465  97.0053 357.4040 0008592  47.0518  16.7661 15.55772760393296
